IRIDIUM 119             
1 42959U 17061E   24119.60302666  .00000461  00000+0  15762-3 0  9994
2 42959  86.3997 351.0477 0002343  82.2247 277.9215 14.34223958343078
IRIDIUM 107             
1 42960U 17061F   24119.62206827  .00000056  00000+0  12987-4 0  9997
2 42960  86.3994 351.0562 0002314  80.6800 279.4657 14.34217137343087
IRIDIUM 132             
1 42961U 17061G   24119.55863579  .00000380  00000+0  12872-3 0  9995
2 42961  86.3995 351.0677 0002133  78.5881 281.5554 14.34214222343071
IRIDIUM 136             
1 42962U 17061H   24119.59035573  .00000403  00000+0  13697-3 0  9997
2 42962  86.3997 351.0574 0002482  86.2209 273.9270 14.34218207343096
IRIDIUM 139             
1 42963U 17061J   24119.38739148  .00000488  00000+0  16702-3 0  9997
2 42963  86.3998 351.1914 0002143  77.5705 282.5730 14.34219304343079
IRIDIUM 125             
1 42964U 17061K   24119.58401331  .00000449  00000+0  15309-3 0  9999
2 42964  86.4000 351.1561 0002546  82.5947 277.5538 14.34216676343118
IRIDIUM 135             
1 43070U 17083A   24119.55813373  .00000175  00000+0  55472-4 0  9994
2 43070  86.3918 287.8278 0001812  97.9539 262.1862 14.34220632332403
IRIDIUM 138             
1 43071U 17083B   24119.51373966 -.00000145  00000+0 -58699-4 0  9993
2 43071  86.3901 287.5694 0002195  86.2238 273.9209 14.34218074332386
